start=new Date('2022-10-19T00:00:00.000Z').valueOf();
sats=[{"LAUNCH_DATE":"2022-07-17","DECAY_DATE":null,"ECCENTRICITY":"0.00017640","MEAN_ANOMALY":"277.0223","COUNTRY_CODE":"US","TLE_LINE2":"2 53165  53.2209 320.6905 0001764  39.8305 277.0223 15.08800174  1305","PERIAPSIS":"538.647","MEAN_MOTION":"15.08800174","FILE":"3621750","ELEMENT_SET_NO":"999","OBJECT_ID":"2022-083AK","CLASSIFICATION_TYPE":"U","ARG_OF_PERICENTER":"39.8305","APOAPSIS":"541.087","RCS_SIZE":"LARGE","REF_FRAME":"TEME","RA_OF_ASC_NODE":"320.6905","MEAN_MOTION_DDOT":"0.0000000000000","PERIOD":"95.440","OBJECT_TYPE":"PAYLOAD","CENTER_NAME":"EARTH","MEAN_MOTION_DOT":"0.00049672","EPHEMERIS_TYPE":"0","EPOCH":"2022-10-18T22:00:00.999936","OBJECT_NAME":"STARLINK-4090","NORAD_CAT_ID":"53165","INCLINATION":"53.2209","SITE":"AFETR","SEMIMAJOR_AXIS":"6918.002","BSTAR":"0.00312060000000","TLE_LINE1":"1 53165U 22083AK  22291.91667824  .00049672  00000-0  31206-2 0  9996","MEAN_ELEMENT_THEORY":"SGP4","REV_AT_EPOCH":"130","GP_ID":"215531272","TIME_SYSTEM":"UTC"},{"PERIOD":"95.439","OBJECT_TYPE":"PAYLOAD","CENTER_NAME":"EARTH","MEAN_MOTION_DOT":"0.00048013","EPOCH":"2022-10-18T22:00:00.999936","EPHEMERIS_TYPE":"0","OBJECT_NAME":"STARLINK-4110","INCLINATION":"53.2199","NORAD_CAT_ID":"53166","SITE":"AFETR","SEMIMAJOR_AXIS":"6917.973","BSTAR":"0.00301690000000","REV_AT_EPOCH":"130","MEAN_ELEMENT_THEORY":"SGP4","TLE_LINE1":"1 53166U 22083AL  22291.91667824  .00048013  00000-0  30169-2 0  9992","TIME_SYSTEM":"UTC","GP_ID":"215531176","LAUNCH_DATE":"2022-07-17","DECAY_DATE":null,"ECCENTRICITY":"0.00017110","MEAN_ANOMALY":"223.7834","COUNTRY_CODE":"US","PERIAPSIS":"538.655","TLE_LINE2":"2 53166  53.2199 320.6894 0001711  53.0853 223.7834 15.08809540  1301","CLASSIFICATION_TYPE":"U","MEAN_MOTION":"15.08809540","FILE":"3621750","ELEMENT_SET_NO":"999","OBJECT_ID":"2022-083AL","ARG_OF_PERICENTER":"53.0853","APOAPSIS":"541.022","RCS_SIZE":"LARGE","REF_FRAME":"TEME","RA_OF_ASC_NODE":"320.6894","MEAN_MOTION_DDOT":"0.0000000000000"},{"MEAN_MOTION_DDOT":"0.0000000000000","RA_OF_ASC_NODE":"307.0161","REF_FRAME":"TEME","APOAPSIS":"450.684","RCS_SIZE":"LARGE","ARG_OF_PERICENTER":"38.5604","FILE":"3621750","MEAN_MOTION":"15.38843993","ELEMENT_SET_NO":"999","OBJECT_ID":"2022-083AM","CLASSIFICATION_TYPE":"U","TLE_LINE2":"2 53167  53.2172 307.0161 0001693  38.5604 184.1432 15.38843993  1307","PERIAPSIS":"448.373","COUNTRY_CODE":"US","MEAN_ANOMALY":"184.1432","ECCENTRICITY":"0.00016930","DECAY_DATE":null,"LAUNCH_DATE":"2022-07-17","GP_ID":"215531011","TIME_SYSTEM":"UTC","TLE_LINE1":"1 53167U 22083AM  22291.91667824 -.01083132  00000-0 -30273-1 0  9992","REV_AT_EPOCH":"130","MEAN_ELEMENT_THEORY":"SGP4","BSTAR":"-0.03027300000000","SEMIMAJOR_AXIS":"6827.664","SITE":"AFETR","NORAD_CAT_ID":"53167","INCLINATION":"53.2172","OBJECT_NAME":"STARLINK-3683","EPHEMERIS_TYPE":"0","EPOCH":"2022-10-18T22:00:00.999936","CENTER_NAME":"EARTH","MEAN_MOTION_DOT":"-0.01083132","PERIOD":"93.577","OBJECT_TYPE":"PAYLOAD"},{"COUNTRY_CODE":"US","TLE_LINE2":"2 53168  53.2206 320.6906 0001946  36.7204 260.1082 15.08820948  1309","PERIAPSIS":"538.457","MEAN_ANOMALY":"260.1082","ECCENTRICITY":"0.00019460","LAUNCH_DATE":"2022-07-17","DECAY_DATE":null,"RA_OF_ASC_NODE":"320.6906","MEAN_MOTION_DDOT":"0.0000000000000","APOAPSIS":"541.150","RCS_SIZE":"LARGE","REF_FRAME":"TEME","ARG_OF_PERICENTER":"36.7204","MEAN_MOTION":"15.08820948","FILE":"3621750","ELEMENT_SET_NO":"999","OBJECT_ID":"2022-083AN","CLASSIFICATION_TYPE":"U","NORAD_CAT_ID":"53168","INCLINATION":"53.2206","EPHEMERIS_TYPE":"0","EPOCH":"2022-10-18T22:00:00.999936","OBJECT_NAME":"STARLINK-4105","MEAN_MOTION_DOT":"0.00046699","CENTER_NAME":"EARTH","PERIOD":"95.439","OBJECT_TYPE":"PAYLOAD","TLE_LINE1":"1 53168U 22083AN  22291.91667824  .00046699  00000-0  29344-2 0  9995","MEAN_ELEMENT_THEORY":"SGP4","REV_AT_EPOCH":"130","GP_ID":"215532002","TIME_SYSTEM":"UTC","BSTAR":"0.00293440000000","SEMIMAJOR_AXIS":"6917.939","SITE":"AFETR"},{"EPHEMERIS_TYPE":"0","EPOCH":"2022-10-18T22:00:00.999936","OBJECT_NAME":"STARLINK-4117","NORAD_CAT_ID":"53169","INCLINATION":"53.2170","OBJECT_TYPE":"PAYLOAD","PERIOD":"93.670","CENTER_NAME":"EARTH","MEAN_MOTION_DOT":"-0.01066979","BSTAR":"-0.03132500000000","TLE_LINE1":"1 53169U 22083AP  22291.91667824 -.01066979  00000-0 -31325-1 0  9993","REV_AT_EPOCH":"130","MEAN_ELEMENT_THEORY":"SGP4","GP_ID":"215530855","TIME_SYSTEM":"UTC","SITE":"AFETR","SEMIMAJOR_AXIS":"6832.221","MEAN_ANOMALY":"138.8679","COUNTRY_CODE":"US","TLE_LINE2":"2 53169  53.2170 306.9670 0001509  54.4407 138.8679 15.37304465  1308","PERIAPSIS":"453.055","LAUNCH_DATE":"2022-07-17","DECAY_DATE":null,"ECCENTRICITY":"0.00015090","APOAPSIS":"455.117","RCS_SIZE":"LARGE","REF_FRAME":"TEME","RA_OF_ASC_NODE":"306.9670","MEAN_MOTION_DDOT":"0.0000000000000","FILE":"3621750","ELEMENT_SET_NO":"999","MEAN_MOTION":"15.37304465","OBJECT_ID":"2022-083AP","CLASSIFICATION_TYPE":"U","ARG_OF_PERICENTER":"54.4407"},{"DECAY_DATE":null,"LAUNCH_DATE":"2022-07-17","ECCENTRICITY":"0.00017350","MEAN_ANOMALY":"79.2260","PERIAPSIS":"538.646","TLE_LINE2":"2 53170  53.2157 315.6992 0001735  39.8965  79.2260 15.08807078  1306","COUNTRY_CODE":"US","CLASSIFICATION_TYPE":"U","FILE":"3621750","ELEMENT_SET_NO":"999","OBJECT_ID":"2022-083AQ","MEAN_MOTION":"15.08807078","ARG_OF_PERICENTER":"39.8965","REF_FRAME":"TEME","RCS_SIZE":"LARGE","APOAPSIS":"541.046","MEAN_MOTION_DDOT":"0.0000000000000","RA_OF_ASC_NODE":"315.6992","PERIOD":"95.440","OBJECT_TYPE":"PAYLOAD","CENTER_NAME":"EARTH","MEAN_MOTION_DOT":"0.00050564","OBJECT_NAME":"STARLINK-4095","EPOCH":"2022-10-18T22:00:00.999936","EPHEMERIS_TYPE":"0","INCLINATION":"53.2157","NORAD_CAT_ID":"53170","SITE":"AFETR","SEMIMAJOR_AXIS":"6917.981","BSTAR":"0.00317530000000","TIME_SYSTEM":"UTC","GP_ID":"215531594","MEAN_ELEMENT_THEORY":"SGP4","REV_AT_EPOCH":"130","TLE_LINE1":"1 53170U 22083AQ  22291.91667824  .00050564  00000-0  31753-2 0  9991"},{"SEMIMAJOR_AXIS":"6727.900","SITE":"AFETR","TIME_SYSTEM":"UTC","GP_ID":"215531429","REV_AT_EPOCH":"130","MEAN_ELEMENT_THEORY":"SGP4","TLE_LINE1":"1 53171U 22083AR  22291.91667824  .00021027  00000-0  15376-3 0  9998","BSTAR":"0.00015376000000","CENTER_NAME":"EARTH","MEAN_MOTION_DOT":"0.00021027","PERIOD":"91.533","OBJECT_TYPE":"PAYLOAD","INCLINATION":"53.2133","NORAD_CAT_ID":"53171","OBJECT_NAME":"STARLINK-4052","EPOCH":"2022-10-18T22:00:00.999936","EPHEMERIS_TYPE":"0","ARG_OF_PERICENTER":"301.3232","CLASSIFICATION_TYPE":"U","OBJECT_ID":"2022-083AR","FILE":"3621750","ELEMENT_SET_NO":"999","MEAN_MOTION":"15.73198133","MEAN_MOTION_DDOT":"0.0000000000000","RA_OF_ASC_NODE":"304.9552","REF_FRAME":"TEME","RCS_SIZE":"LARGE","APOAPSIS":"353.940","ECCENTRICITY":"0.00062050","DECAY_DATE":null,"LAUNCH_DATE":"2022-07-17","PERIAPSIS":"345.591","TLE_LINE2":"2 53171  53.2133 304.9552 0006205 301.3232 197.0980 15.73198133  1300","COUNTRY_CODE":"US","MEAN_ANOMALY":"197.0980"},{"TIME_SYSTEM":"UTC","GP_ID":"215531761","REV_AT_EPOCH":"130","MEAN_ELEMENT_THEORY":"SGP4","TLE_LINE1":"1 53172U 22083AS  22291.91667824  .00049007  00000-0  30778-2 0  9999","BSTAR":"0.00307780000000","SEMIMAJOR_AXIS":"6917.948","SITE":"AFETR","INCLINATION":"53.2148","NORAD_CAT_ID":"53172","OBJECT_NAME":"STARLINK-4299","EPOCH":"2022-10-18T22:00:00.999936","EPHEMERIS_TYPE":"0","MEAN_MOTION_DOT":"0.00049007","CENTER_NAME":"EARTH","PERIOD":"95.439","OBJECT_TYPE":"PAYLOAD","MEAN_MOTION_DDOT":"0.0000000000000","RA_OF_ASC_NODE":"315.6969","REF_FRAME":"TEME","RCS_SIZE":"LARGE","APOAPSIS":"541.044","ARG_OF_PERICENTER":"44.3483","CLASSIFICATION_TYPE":"U","MEAN_MOTION":"15.08817989","FILE":"3621750","ELEMENT_SET_NO":"999","OBJECT_ID":"2022-083AS","PERIAPSIS":"538.581","TLE_LINE2":"2 53172  53.2148 315.6969 0001780  44.3483  94.7774 15.08817989  1302","COUNTRY_CODE":"US","MEAN_ANOMALY":"94.7774","ECCENTRICITY":"0.00017800","DECAY_DATE":null,"LAUNCH_DATE":"2022-07-17"},{"RA_OF_ASC_NODE":"304.9616","MEAN_MOTION_DDOT":"0.0000000000000","APOAPSIS":"354.011","RCS_SIZE":"LARGE","REF_FRAME":"TEME","ARG_OF_PERICENTER":"302.2857","OBJECT_ID":"2022-083AT","FILE":"3621750","ELEMENT_SET_NO":"999","MEAN_MOTION":"15.73221964","CLASSIFICATION_TYPE":"U","COUNTRY_CODE":"US","TLE_LINE2":"2 53173  53.2133 304.9616 0006411 302.2857 193.1613 15.73221964  1304","PERIAPSIS":"345.384","MEAN_ANOMALY":"193.1613","ECCENTRICITY":"0.00064110","LAUNCH_DATE":"2022-07-17","DECAY_DATE":null,"TLE_LINE1":"1 53173U 22083AT  22291.91667824  .00024102  00000-0  17534-3 0  9995","MEAN_ELEMENT_THEORY":"SGP4","REV_AT_EPOCH":"130","GP_ID":"215531273","TIME_SYSTEM":"UTC","BSTAR":"0.00017534000000","SEMIMAJOR_AXIS":"6727.833","SITE":"AFETR","NORAD_CAT_ID":"53173","INCLINATION":"53.2133","EPHEMERIS_TYPE":"0","EPOCH":"2022-10-18T22:00:00.999936","OBJECT_NAME":"STARLINK-4300","CENTER_NAME":"EARTH","MEAN_MOTION_DOT":"0.00024102","OBJECT_TYPE":"PAYLOAD","PERIOD":"91.532"},{"OBJECT_TYPE":"PAYLOAD","PERIOD":"95.439","MEAN_MOTION_DOT":"0.00038368","CENTER_NAME":"EARTH","OBJECT_NAME":"STARLINK-4205","EPHEMERIS_TYPE":"0","EPOCH":"2022-10-18T22:00:00.999936","NORAD_CAT_ID":"53174","INCLINATION":"53.2198","SITE":"AFETR","SEMIMAJOR_AXIS":"6917.958","BSTAR":"0.00241740000000","GP_ID":"215531177","TIME_SYSTEM":"UTC","TLE_LINE1":"1 53174U 22083AU  22291.91667824  .00038368  00000-0  24174-2 0  9992","REV_AT_EPOCH":"130","MEAN_ELEMENT_THEORY":"SGP4","DECAY_DATE":null,"LAUNCH_DATE":"2022-07-17","ECCENTRICITY":"0.00017720","MEAN_ANOMALY":"235.7682","TLE_LINE2":"2 53174  53.2198 330.6900 0001772  46.0301 235.7682 15.08814709  1302","PERIAPSIS":"538.597","COUNTRY_CODE":"US","ELEMENT_SET_NO":"999","FILE":"3621750","MEAN_MOTION":"15.08814709","OBJECT_ID":"2022-083AU","CLASSIFICATION_TYPE":"U","ARG_OF_PERICENTER":"46.0301","REF_FRAME":"TEME","APOAPSIS":"541.049","RCS_SIZE":"LARGE","MEAN_MOTION_DDOT":"0.0000000000000","RA_OF_ASC_NODE":"330.6900"}];
